[
    {
    "idElset": "dbfa38c0-d9df-4fac-865d-59f8c7494e9c",
    "classificationMarking": "U//PR-EXO-ELSETS",
    "satNo": 39163,
    "epoch": "2024-07-31T00:59:59.421515Z",
    "meanMotion": 1.002674348498117,
    "idOnOrbit": "39163",
    "uct": false,
    "eccentricity": 0.0002911439936568368,
    "inclination": 0.0732920308755092,
    "raan": 339.454374404917,
    "argOfPerigee": 65.85955973961984,
    "meanAnomaly": 285.8284557673888,
    "bStar": 0,
    "meanMotionDot": 0,
    "meanMotionDDot": 0,
    "semiMajorAxis": 42165.95356252307,
    "period": 1436.159209774284,
    "apogee": 42178.22992663961,
    "perigee": 42153.67719840653,
    "origObjectId": "39163",
    "line1": "1 39163U 13022A   24213.04165997 +.00000000 +00000+0 +00000+0 0 99990",
    "line2": "2 39163   0.0733 339.4544 0002911  65.8596 285.8285 01.00267435000007",
    "createdAt": "2024-07-31T01:32:28.481Z",
    "createdBy": "system.exo",
    "source": "EXO",
    "dataMode": "REAL",
    "origNetwork": "OPS1",
    "bogus_field1": "     ",
    "bogus_field2": "---"
    },
    {
    "idElset": "3f053f71-2bb4-47a5-bb38-4f25379efef5",
    "classificationMarking": "U",
    "satNo": 44735,
    "epoch": "2024-07-31T00:59:58.000992Z",
    "meanMotion": 15.06402283,
    "idOnOrbit": "44735",
    "eccentricity": 0.0001949,
    "inclination": 53.0554,
    "raan": 320.1822,
    "argOfPerigee": 95.9767,
    "meanAnomaly": 264.1444,
    "revNo": 26021,
    "bStar": 0.00083366,
    "meanMotionDot": 0.00012158,
    "meanMotionDDot": 0,
    "semiMajorAxis": 6925.342,
    "period": 95.592,
    "apogee": 6926.691000000001,
    "perigee": 6923.992,
    "line1": "1 44735U 19074Y   24213.04164353 +.00012158 +00000+0 +83366-3 0 99996",
    "line2": "2 44735  53.0554 320.1822 0001949  95.9767 264.1444 15.06402283260218",
    "createdAt": "2024-07-31T07:05:26.070Z",
    "createdBy": "system.ob-ingest",
    "source": "18th SPCS",
    "dataMode": "REAL",
    "algorithm": "SGP4",
    "origNetwork": "OPS1",
    "bogus_field1": "     ",
    "bogus_field2": "---"
    },
    {
    "idElset": "bc153332-a611-4840-ae7a-7d9fa6389fcc",
    "classificationMarking": "U",
    "satNo": 40189,
    "epoch": "2024-07-31T00:59:57.795360Z",
    "meanMotion": 1.9033923,
    "idOnOrbit": "40189",
    "eccentricity": 0.7387115,
    "inclination": 25.5624,
    "raan": 200.101,
    "argOfPerigee": 47.3513,
    "meanAnomaly": 354.769,
    "revNo": 8125,
    "bStar": 0.0076295,
    "meanMotionDot": 0.00000216,
    "meanMotionDDot": 0,
    "semiMajorAxis": 27503.184,
    "period": 756.544,
    "apogee": 47820.102,
    "perigee": 7186.2660000000005,
    "line1": "1 40189U 11077N   24213.04164115 +.00000216 +00000+0 +76295-2 0 99990",
    "line2": "2 40189  25.5624 200.1010 7387115  47.3513 354.7690 01.90339230081257",
    "createdAt": "2024-07-31T18:05:16.351Z",
    "createdBy": "system.ob-ingest",
    "source": "18th SPCS",
    "dataMode": "REAL",
    "algorithm": "SGP4",
    "origNetwork": "OPS1",
    "bogus_field1": "     ",
    "bogus_field2": "---"
    },
    {
    "idElset": "1f776521-c324-42f1-9862-d74e9b498bbe",
    "classificationMarking": "U//PR-EXO-ELSETS",
    "satNo": 33595,
    "epoch": "2024-07-31T00:59:57.706296Z",
    "meanMotion": 1.002678101759794,
    "idOnOrbit": "33595",
    "uct": false,
    "eccentricity": 0.0004292100456900585,
    "inclination": 1.688633345300555,
    "raan": 86.82643080666165,
    "argOfPerigee": 39.08995561419263,
    "meanAnomaly": 187.1874042797026,
    "bStar": 0,
    "meanMotionDot": 0,
    "meanMotionDDot": 0,
    "semiMajorAxis": 42165.84833768833,
    "period": 1436.153833890124,
    "apogee": 42183.9463433799,
    "perigee": 42147.75033199675,
    "origObjectId": "33595",
    "line1": "1 33595U 09007A   24213.04164012 +.00000000 +00000+0 +00000+0 0 99998",
    "line2": "2 33595   1.6886  86.8264 0004292  39.0900 187.1874 01.00267810000009",
    "createdAt": "2024-07-31T01:16:27.324Z",
    "createdBy": "system.exo",
    "source": "EXO",
    "dataMode": "REAL",
    "origNetwork": "OPS1",
    "bogus_field1": "     ",
    "bogus_field2": "---"
    },
    {
    "idElset": "66560c3c-8558-43c3-ace8-e11632d66278",
    "classificationMarking": "U//PR-EXO-ELSETS",
    "satNo": 21135,
    "epoch": "2024-07-31T00:59:56.227969Z",
    "meanMotion": 1.034264488302576,
    "idOnOrbit": "21135",
    "uct": false,
    "eccentricity": 0.002742597246098196,
    "inclination": 12.64380726816602,
    "raan": 336.9631896251663,
    "argOfPerigee": 133.500467683032,
    "meanAnomaly": 230.1677541746273,
    "bStar": 0,
    "meanMotionDot": 0,
    "meanMotionDDot": 0,
    "semiMajorAxis": 41302.92292540716,
    "period": 1392.293766523216,
    "apogee": 41416.20020807819,
    "perigee": 41189.64564273613,
    "origObjectId": "21135",
    "line1": "1 21135U 91014D   24213.04162301 +.00000000 +00000+0 +00000+0 0 99993",
    "line2": "2 21135  12.6438 336.9632 0027426 133.5005 230.1678 01.03426449000008",
    "createdAt": "2024-07-31T01:20:29.994Z",
    "createdBy": "system.exo",
    "source": "EXO",
    "dataMode": "REAL",
    "origNetwork": "OPS1",
    "bogus_field1": "     ",
    "bogus_field2": "---"
    }
]